{"epoch":1784710044,"count":18256,"objects":[{"id":"66737","name":"FLOCK 4H 34","type":"PAYLOAD","l1":"1 66737U 25276BZ  26202.59928574  .00006026  00000-0  27565-3 0  9994","l2":"2 66737  97.4220 275.9170 0003183 154.3297 205.8097 15.20893985 34910"},{"id":"66738","name":"FLOCK 4H 35","type":"PAYLOAD","l1":"1 66738U 25276CA  26202.44297480  .00004678  00000-0  21403-3 0  9990","l2":"2 66738  97.4180 275.6986 0003045 138.8257 221.3209 15.21002078 34934"},{"id":"66739","name":"FLOCK 4H 36","type":"PAYLOAD","l1":"1 66739U 25276CB  26202.48247926  .00006089  00000-0  27948-3 0  9993","l2":"2 66739  97.4229 275.7943 0003071 165.8221 194.3101 15.20771861 35644"}]}