{"fetched_at":"2026-07-22T07:09:23.749Z","source":"https://celestrak.org/NORAD/elements/gp.php?GROUP=planet&FORMAT=JSON","constellation":"superdove","records":[{"OBJECT_NAME":"FLOCK 4H-34","OBJECT_ID":"2025-276BZ","EPOCH":"2026-07-21T14:22:58.287936","CLASSIFICATION_TYPE":"U","MEAN_MOTION":15.20893985,"ECCENTRICITY":0.0003183,"INCLINATION":97.422,"RA_OF_ASC_NODE":275.917,"ARG_OF_PERICENTER":154.3297,"MEAN_ANOMALY":205.8097,"EPHEMERIS_TYPE":0,"NORAD_CAT_ID":66737,"ELEMENT_SET_NO":999,"REV_AT_EPOCH":3491,"BSTAR":0.00027564512,"MEAN_MOTION_DOT":0.00006026,"MEAN_MOTION_DDOT":0},{"OBJECT_NAME":"FLOCK 4H-35","OBJECT_ID":"2025-276CA","EPOCH":"2026-07-21T10:37:53.022720","CLASSIFICATION_TYPE":"U","MEAN_MOTION":15.21002078,"ECCENTRICITY":0.00030455,"INCLINATION":97.418,"RA_OF_ASC_NODE":275.6986,"ARG_OF_PERICENTER":138.8257,"MEAN_ANOMALY":221.3209,"EPHEMERIS_TYPE":0,"NORAD_CAT_ID":66738,"ELEMENT_SET_NO":999,"REV_AT_EPOCH":3493,"BSTAR":0.00021403005,"MEAN_MOTION_DOT":0.00004678,"MEAN_MOTION_DDOT":0},{"OBJECT_NAME":"FLOCK 4H-36","OBJECT_ID":"2025-276CB","EPOCH":"2026-07-21T11:34:46.208064","CLASSIFICATION_TYPE":"U","MEAN_MOTION":15.20771861,"ECCENTRICITY":0.00030712,"INCLINATION":97.4229,"RA_OF_ASC_NODE":275.7943,"ARG_OF_PERICENTER":165.8221,"MEAN_ANOMALY":194.3101,"EPHEMERIS_TYPE":0,"NORAD_CAT_ID":66739,"ELEMENT_SET_NO":999,"REV_AT_EPOCH":3564,"BSTAR":0.00027948468,"MEAN_MOTION_DOT":0.00006089,"MEAN_MOTION_DDOT":0}]}
